{
"type": "FeatureCollection",
"name": "geonoxa_zonas_summary",
"crs": { "type": "name", "properties": { "name": "urn:ogc:def:crs:OGC:1.3:CRS84" } },
"features": [
{ "type": "Feature", "properties": { "objectid": 1, "nombre_zon": "Temuco y Padre las Casas", "zona_dec": "Saturada", "saturado": "MP10 diaria - MP 2.5 diaria (Material particulado respirable)", "latentes": "No aplica", "decreto": "D.S. Nº 35 de 2005/D.S. Nº 2 de 2013", "link": "http://bcn.cl/1vjpd    http://bcn.cl/1yv0r", "cut_reg": "09", "shape.STAr": 0.089836160155301006, "shape.STLe": 1.9378752769466929, "superficie": 86717.1891797766 }, "geometry": { "type": "Point", "coordinates": [ -72.628354394513323, -38.730310549947674 ] } },
{ "type": "Feature", "properties": { "objectid": 2, "nombre_zon": "Calama", "zona_dec": "Saturada", "saturado": "MP10 anual (Material particulado respirable)", "latentes": "No aplica", "decreto": "D.S. Nº 57 de 2009", "link": "http://bcn.cl/23uoe", "cut_reg": "02", "shape.STAr": 0.12635225397229999, "shape.STLe": 1.4346762546288041, "superficie": 144114.64062314067 }, "geometry": { "type": "Point", "coordinates": [ -68.844598824471021, -22.358367523262125 ] } },
{ "type": "Feature", "properties": { "objectid": 3, "nombre_zon": "Valle Central de la VI región", "zona_dec": "Saturada", "saturado": "MP10 (Material particulado respirable) anual y diaria", "latentes": "No aplica", "decreto": "D.S. Nº 07 de 2009 / D.S. Nº 42/2017", "link": "http://bcn.cl/1zae5 http://bcn.cl/25eau", "cut_reg": "06", "shape.STAr": 0.35088606098861402, "shape.STLe": 8.5515121246817376, "superficie": 357944.1622516957 }, "geometry": { "type": "Point", "coordinates": [ -70.905293460428965, -34.389038244192015 ] } },
{ "type": "Feature", "properties": { "objectid": 4, "nombre_zon": "Andacollo", "zona_dec": "Saturada", "saturado": "MP10 (Material particulado respirable) anual y diaria", "latentes": "No aplica", "decreto": "D.S. Nº 08 de 2009", "link": "http://bcn.cl/1v1wu", "cut_reg": "04", "shape.STAr": 0.0056723830402920002, "shape.STLe": 0.29673611857898802, "superficie": 6052.4964898908256 }, "geometry": { "type": "Point", "coordinates": [ -71.101516362290425, -30.242531357892368 ] } },
{ "type": "Feature", "properties": { "objectid": 5, "nombre_zon": "Tocopilla", "zona_dec": "Saturada", "saturado": "MP10 anual (Material particulado respirable)", "latentes": "No aplica", "decreto": "D.S. Nº 50 de 2007", "link": "http://bcn.cl/1zx11", "cut_reg": "02", "shape.STAr": 0.0090286000322519992, "shape.STLe": 0.38834793477871499, "superficie": 10317.08463931197 }, "geometry": { "type": "Point", "coordinates": [ -70.174432626558939, -22.088284497385953 ] } },
{ "type": "Feature", "properties": { "objectid": 6, "nombre_zon": "Concepción", "zona_dec": "Latente", "saturado": "No aplica", "latentes": "MP10 (Material particulado respirable)", "decreto": "D.S. Nº 41 de 2006", "link": "http://bcn.cl/1xotm", "cut_reg": "08", "shape.STAr": 0.20824062527367501, "shape.STLe": 4.148890806426758, "superficie": 206041.54127742199 }, "geometry": { "type": "Point", "coordinates": [ -72.955481993915726, -36.873365098713187 ] } },
{ "type": "Feature", "properties": { "objectid": 7, "nombre_zon": "Maule y Talca", "zona_dec": "Saturada", "saturado": "MP10 (Material particulado respirable) anual y diaria", "latentes": "No aplica", "decreto": "D.S. Nº 12 de 2010", "link": "http://bcn.cl/29zln", "cut_reg": "06", "shape.STAr": 0.046564211678742001, "shape.STLe": 1.3126323251420411, "superficie": 46891.427587899205 }, "geometry": { "type": "Point", "coordinates": [ -71.657800998206667, -35.468584735685042 ] } },
{ "type": "Feature", "properties": { "objectid": 8, "nombre_zon": "María Elena y Pedro de Valdivia", "zona_dec": "Saturada", "saturado": "MP10 diaria (Material particulado respirable)", "latentes": "No aplica", "decreto": "D.S. Nº 1.162 de 1993", "link": "http://bcn.cl/1wcpy", "cut_reg": "02", "shape.STAr": 0.12476694662405, "shape.STLe": 1.500679929823874, "superficie": 142162.14780752643 }, "geometry": { "type": "Point", "coordinates": [ -69.626802785419258, -22.502112217624202 ] } },
{ "type": "Feature", "properties": { "objectid": 9, "nombre_zon": "Fundición Hernán Videla Lira", "zona_dec": "Saturada", "saturado": "SO2 diaria (Anhidrido sulfuroso)", "latentes": "No aplica", "decreto": "D.S. Nº 255 de 1993", "link": "http://bcn.cl/21xdj", "cut_reg": "03", "shape.STAr": 0.072578725000311997, "shape.STLe": 1.168210377162143, "superficie": 79424.876285067003 }, "geometry": { "type": "Point", "coordinates": [ -70.238124393355875, -27.561599671510713 ] } },
{ "type": "Feature", "properties": { "objectid": 10, "nombre_zon": "Fundición Ventanas", "zona_dec": "Saturada", "saturado": "SO2 (Anhidrido sulfuroso) - MP10 (Material particulado respirable)", "latentes": "No aplica", "decreto": "D.S. Nº 346 de 1994", "link": "http://bcn.cl/24z6w", "cut_reg": "05", "shape.STAr": 0.033669518284569003, "shape.STLe": 1.002043336871757, "superficie": 34988.76540882518 }, "geometry": { "type": "Point", "coordinates": [ -71.420286782885313, -32.761157746966653 ] } },
{ "type": "Feature", "properties": { "objectid": 11, "nombre_zon": "Fundición Caletones", "zona_dec": "Saturada", "saturado": "SO2 (Anhidrido sulfuroso) diaria - MP10 diaria (Material particulado respirable)", "latentes": "No aplica", "decreto": "D.S. Nº 179 de 1994", "link": "http://bcn.cl/23ewa", "cut_reg": "05", "shape.STAr": 0.12642578413033301, "shape.STLe": 2.4782520011161879, "superficie": 129381.15545441964 }, "geometry": { "type": "Point", "coordinates": [ -70.45619895791657, -34.11950824979823 ] } },
{ "type": "Feature", "properties": { "objectid": 12, "nombre_zon": "Region Metropolitana", "zona_dec": "Saturada / Latente", "saturado": "O3 horaria (Ozono) - MP2,5 diaria y MP10 diaria (Material particulado respirable) - CO 1 y 8 horas (Monoxido de carbono)", "latentes": "NO2 (Dioxido de nitrogeno) anual", "decreto": "D.S. Nº 131 de 1996 / D.S. Nº 67 de 2014", "link": "http://bcn.cl/1zypa    http://bcn.cl/1yfc7", "cut_reg": "13", "shape.STAr": 1.4965539181821439, "shape.STLe": 8.0502110745694058, "superficie": 1540556.3402453156 }, "geometry": { "type": "Point", "coordinates": [ -70.625287513388017, -33.604077464473953 ] } },
{ "type": "Feature", "properties": { "objectid": 13, "nombre_zon": "Osorno", "zona_dec": "Saturada", "saturado": "MP10 diaria y anual - MP 2.5 diaria y anual  (Material particulado respirable)", "latentes": "No aplica", "decreto": "D.S. Nº 27 de 2013", "link": "http://bcn.cl/1xarm", "cut_reg": "10", "shape.STAr": 0.10145621276637901, "shape.STLe": 2.675620491360307, "superficie": 95343.411572416429 }, "geometry": { "type": "Point", "coordinates": [ -73.086518904007264, -40.611887655785289 ] } },
{ "type": "Feature", "properties": { "objectid": 14, "nombre_zon": "Chillán", "zona_dec": "Saturada / Latente", "saturado": "MP10 diaria - MP 2.5 diaria (Material particulado respirable)", "latentes": "MP10 anual (Material particulado respirable)", "decreto": "D.S. Nº 36 de 2013", "link": "http://bcn.cl/1voo9", "cut_reg": "08", "shape.STAr": 0.074353052569677003, "shape.STLe": 2.011505011599152, "superficie": 73788.743065327959 }, "geometry": { "type": "Point", "coordinates": [ -72.153638348183875, -36.639781641850945 ] } },
{ "type": "Feature", "properties": { "objectid": 15, "nombre_zon": "Huasco", "zona_dec": "Latente", "saturado": "No aplica", "latentes": "MP10 anual (Material particulado respirable)", "decreto": "D.S. Nº 40 de 2012", "link": "http://bcn.cl/252ub", "cut_reg": "03", "shape.STAr": 0.016405483132416999, "shape.STLe": 0.94036158895778899, "superficie": 17802.896011568333 }, "geometry": { "type": "Point", "coordinates": [ -71.205516210398258, -28.486871356783769 ] } },
{ "type": "Feature", "properties": { "objectid": 16, "nombre_zon": "Coyhaique", "zona_dec": "Saturada", "saturado": "MP10 (Material particulado respirable) diaria y anual", "latentes": "No aplica", "decreto": "D.S. Nº 33 de 2012 / D.S. Nº 15 de 2016", "link": "http://bcn.cl/25249    http://bcn.cl/208ym", "cut_reg": "11", "shape.STAr": 0.013567840239602001, "shape.STLe": 0.51907372449931399, "superficie": 11771.139149102783 }, "geometry": { "type": "Point", "coordinates": [ -72.047545590704942, -45.57587473951147 ] } },
{ "type": "Feature", "properties": { "objectid": 17, "nombre_zon": "Fundición Potrerillos", "zona_dec": "Saturada", "saturado": "SO2 anual y diaria (Anhidrido sulfuroso) - MP10 diaria (Material particulado respirable)", "latentes": "No aplica", "decreto": "D.S. Nº 18 de 1997", "link": "http://bcn.cl/1zypi", "cut_reg": "03", "shape.STAr": 0.00066910203077000002, "shape.STLe": 0.10446729793435899, "superficie": 739.41281018416885 }, "geometry": { "type": "Point", "coordinates": [ -69.484943537234642, -26.438742512403223 ] } },
{ "type": "Feature", "properties": { "objectid": 18, "nombre_zon": "Fundición Chuquicamata", "zona_dec": "Saturada / Latente", "saturado": "MP10 (Material particulado respirable) anual", "latentes": "SO2 (Anhidrido sulfuroso) diaria", "decreto": "D.S. Nº 185 de 1991/D.S. Nº 55 de 2005", "link": "http://bcn.cl/1xegw", "cut_reg": "02", "shape.STAr": 0.0042975030600020002, "shape.STLe": 0.26239117776378501, "superficie": 4903.7081984104134 }, "geometry": { "type": "Point", "coordinates": [ -68.909772730917609, -22.29834374017631 ] } },
{ "type": "Feature", "properties": { "objectid": 19, "nombre_zon": "Valdivia", "zona_dec": "Saturada", "saturado": "MP10 diaria y anual - MP 2.5 diaria (Material particulado respirable)", "latentes": "No aplica", "decreto": "D.S. Nº 17 de 2014", "link": "http://bcn.cl/24z0o", "cut_reg": "14", "shape.STAr": 0.100102610458634, "shape.STLe": 4.514693160943172, "superficie": 95161.727737985013 }, "geometry": { "type": "Point", "coordinates": [ -73.169524067517685, -39.818516576858471 ] } },
{ "type": "Feature", "properties": { "objectid": 20, "nombre_zon": "Los Ángeles", "zona_dec": "Saturada", "saturado": "MP10 diaria - MP 2.5 diaria (Material particulado respirable)", "latentes": "No aplica", "decreto": "D.S. Nº 11 de 2015", "link": "http://bcn.cl/1vwxa", "cut_reg": "08", "shape.STAr": 0.17809600050827601, "shape.STLe": 2.6433469692292411, "superficie": 174997.08597133635 }, "geometry": { "type": "Point", "coordinates": [ -72.32748535374408, -37.407557675849347 ] } },
{ "type": "Feature", "properties": { "objectid": 21, "nombre_zon": "Concón- Quintero-Puchuncaví", "zona_dec": "Saturada / Latente", "saturado": "MP 2.5 (Material particulado respirable) anual", "latentes": "MP10 anual - MP 2.5 diaria  (Material particulado respirable)", "decreto": "D.S. Nº 364 de 1994 / D.S. Nº 10 de 2015", "link": "http://bcn.cl/1xvc8", "cut_reg": "05", "shape.STAr": 0.050551988693314003, "shape.STLe": 1.726035736793661, "superficie": 52508.328050935081 }, "geometry": { "type": "Point", "coordinates": [ -71.423616393031111, -32.803134415544093 ] } },
{ "type": "Feature", "properties": { "objectid": 22, "nombre_zon": "Provincia de Quillota y a las comunas de Catemu, Panquehue y Llaillay de la Provincia de San Felipe de Aconcagua", "zona_dec": "Saturada / Latente", "saturado": "MP10  anual (Material particulado respirable)", "latentes": "MP10 diaria (Material particulado respirable)", "decreto": "D.S. Nº 107 de 2019", "link": "http://bcn.cl/2ac6g\r\n", "cut_reg": "05", "shape.STAr": 0.10710528489198599, "shape.STLe": 1.8596492287100741, "superficie": 111245.67916463689 }, "geometry": { "type": "Point", "coordinates": [ -71.18268666647019, -32.806773686404114 ] } },
{ "type": "Feature", "properties": { "objectid": 23, "nombre_zon": "Curicó", "zona_dec": "Saturada", "saturado": "MP2,5 diaria (Material particulado respirable)", "latentes": "No aplica", "decreto": "D.S. Nº 53 de 2016", "link": "http://bcn.cl/2629q\r\n", "cut_reg": "06", "shape.STAr": 0.13211391920117399, "shape.STLe": 3.3067595747739951, "superficie": 133478.30825638046 }, "geometry": { "type": "Point", "coordinates": [ -70.895460602576989, -35.199101580534119 ] } },
{ "type": "Feature", "properties": { "objectid": 24, "nombre_zon": "Lota, Coronel, San Pedro de la Paz, Hualqui, Chiguayante, Concepción, Penco, Tomé, Hualpén y Talcahuano", "zona_dec": "Saturada/ Latente", "saturado": "MP2,5 diaria (Material particulado respirable)", "latentes": "MP10 diaria (Material particulado respirable)", "decreto": "D.S. Nº 15 de 2016 / D.S. Nº 41 de 2006", "link": "http://bcn.cl/1xi86\r\n", "cut_reg": "08", "shape.STAr": 0.01162983439508, "shape.STLe": 0.64277560974502601, "superficie": 11470.545731870345 }, "geometry": { "type": "Point", "coordinates": [ -73.105135444282752, -37.119481113612601 ] } }
]
}
