{
"type": "FeatureCollection",
"name": "nemo_snaspe_summary",
"crs": { "type": "name", "properties": { "name": "urn:ogc:def:crs:OGC:1.3:CRS84" } },
"features": [
{ "type": "Feature", "properties": { "fid": 14.0, "SUPERFICIE": "128763,2", "NOMBRE_TOT": "Reserva Nacional Pampa Del Tamarugal", "ID_CATASTR": "1345912", "CATEGORIA": "Reserva Nacional", "NOMBRE_UNI": "Pampa Del Tamarugal", "REGION": "Tarapaca", "CONDICION": "Regional", "TIPO_DE_PR": "Fiscal", "NUM_PLANO": "1-2-3058-CR-Y-01401-1724-CR", "TERRITORIO": "Continente", "DECRETO": "N° 297 de 1987; N° 310 de 1994; N° 59 de 2013; 137 de 2013", "EMISOR_DEC": "Ministerio de Agricultura; Ministerio de Bienes Nacionales", "LINK": null, "TOTAL VERT": 114 }, "geometry": { "type": "Point", "coordinates": [ -69.669321494073486, -20.59699901473563 ] } },
{ "type": "Feature", "properties": { "fid": 40.0, "SUPERFICIE": "7536,5", "NOMBRE_TOT": "Reserva Nacional Mocho Choshuenco", "ID_CATASTR": "1345870", "CATEGORIA": "Reserva Nacional", "NOMBRE_UNI": "Mocho Choshuenco", "REGION": "Los Rios", "CONDICION": "Regional", "TIPO_DE_PR": "Fiscal", "NUM_PLANO": "No menciona Plano", "TERRITORIO": "Continente", "DECRETO": "N° 55 de 1994", "EMISOR_DEC": "Ministerio de Agricultura", "LINK": null, "TOTAL VERT": 1335 }, "geometry": { "type": "Point", "coordinates": [ -72.048974083596548, -39.928225838084394 ] } },
{ "type": "Feature", "properties": { "fid": 41.0, "SUPERFICIE": "31444", "NOMBRE_TOT": "Reserva Nacional Alto Bio Bio", "ID_CATASTR": "1345862", "CATEGORIA": "Reserva Nacional", "NOMBRE_UNI": "Alto Bio Bio", "REGION": "Araucania", "CONDICION": "Regional", "TIPO_DE_PR": "Fiscal", "NUM_PLANO": "No menciona Plano", "TERRITORIO": "Continente", "DECRETO": "N° 1935 de 1912; N° 10234 de 1929; N° 133 de 1989", "EMISOR_DEC": "Ministerio de Relaciones Exteriores; Ministerio de Fomento; Ministerio de Agricultura", "LINK": null, "TOTAL VERT": 1845 }, "geometry": { "type": "Point", "coordinates": [ -70.942328459098647, -38.633853426161508 ] } },
{ "type": "Feature", "properties": { "fid": 42.0, "SUPERFICIE": "9887", "NOMBRE_TOT": "Reserva Nacional China Muerta", "ID_CATASTR": "1345941", "CATEGORIA": "Reserva Nacional", "NOMBRE_UNI": "China Muerta", "REGION": "Araucania", "CONDICION": "Regional", "TIPO_DE_PR": "Fiscal", "NUM_PLANO": "111", "TERRITORIO": "Continente", "DECRETO": "N° 330 de 1968", "EMISOR_DEC": "Ministerio de Agricultura", "LINK": null, "TOTAL VERT": 1181 }, "geometry": { "type": "Point", "coordinates": [ -71.518662935345091, -38.798456149825967 ] } },
{ "type": "Feature", "properties": { "fid": 43.0, "SUPERFICIE": "2150", "NOMBRE_TOT": "Reserva Nacional Coihaique", "ID_CATASTR": "1345947", "CATEGORIA": "Reserva Nacional", "NOMBRE_UNI": "Coihaique", "REGION": "Aysen", "CONDICION": "Regional", "TIPO_DE_PR": "Fiscal", "NUM_PLANO": "395", "TERRITORIO": "Continente", "DECRETO": "N° 1155 de 1948; N° 198 de 1968; N! 88 de 1977; N° 112 de 1980", "EMISOR_DEC": "Ministerio de Tierras y Colonización; Ministerio de Agricultura", "LINK": null, "TOTAL VERT": 85 }, "geometry": { "type": "Point", "coordinates": [ -72.014905609866787, -45.524055331858115 ] } },
{ "type": "Feature", "properties": { "fid": 44.0, "SUPERFICIE": "520,37", "NOMBRE_TOT": "Reserva Nacional El Yali", "ID_CATASTR": "1345890", "CATEGORIA": "Reserva Nacional", "NOMBRE_UNI": "El Yali", "REGION": "Valparaiso", "CONDICION": "Regional", "TIPO_DE_PR": "Fiscal", "NUM_PLANO": "V-7-2266-CR", "TERRITORIO": "Continente", "DECRETO": "N° 41 de 1996", "EMISOR_DEC": "Ministerio de Agricultura", "LINK": null, "TOTAL VERT": 383 }, "geometry": { "type": "Point", "coordinates": [ -71.706279671915695, -33.760329858921729 ] } },
{ "type": "Feature", "properties": { "fid": 45.0, "SUPERFICIE": "12065", "NOMBRE_TOT": "Reserva Nacional Futaleufu", "ID_CATASTR": "1345882", "CATEGORIA": "Reserva Nacional", "NOMBRE_UNI": "Futaleufu", "REGION": "Los Lagos", "CONDICION": "Regional", "TIPO_DE_PR": "Fiscal", "NUM_PLANO": "X-5-1012-CR", "TERRITORIO": "Continente", "DECRETO": "N° 602 de 1998", "EMISOR_DEC": "Ministerio de Bienes Nacionales", "LINK": null, "TOTAL VERT": 955 }, "geometry": { "type": "Point", "coordinates": [ -71.811823251636881, -43.263794022871942 ] } },
{ "type": "Feature", "properties": { "fid": 46.0, "SUPERFICIE": "2583", "NOMBRE_TOT": "Reserva Nacional La Chimba", "ID_CATASTR": "1345924", "CATEGORIA": "Reserva Nacional", "NOMBRE_UNI": "La Chimba", "REGION": "Antofagasta", "CONDICION": "Regional", "TIPO_DE_PR": "Fiscal", "NUM_PLANO": "II-22-2572-CR", "TERRITORIO": "Continente", "DECRETO": "N° 71 de 1988", "EMISOR_DEC": "Ministerio de Agricultura", "LINK": null, "TOTAL VERT": 11 }, "geometry": { "type": "Point", "coordinates": [ -70.335401628883872, -23.531825184767637 ] } },
{ "type": "Feature", "properties": { "fid": 47.0, "SUPERFICIE": "27110", "NOMBRE_TOT": "Reserva Nacional Lago Carlota", "ID_CATASTR": "1345904", "CATEGORIA": "Reserva Nacional", "NOMBRE_UNI": "Lago Carlota", "REGION": "Aysen", "CONDICION": "Regional", "TIPO_DE_PR": "Fiscal", "NUM_PLANO": "No menciona Plano", "TERRITORIO": "Continente", "DECRETO": "N° 391 de 1965; N° 329 de 1967; N° 204 de 1970", "EMISOR_DEC": "Ministerio de Agricultura", "LINK": null, "TOTAL VERT": 852 }, "geometry": { "type": "Point", "coordinates": [ -71.557147645179526, -44.588622750655027 ] } },
{ "type": "Feature", "properties": { "fid": 48.0, "SUPERFICIE": "9168", "NOMBRE_TOT": "Reserva Nacional Lago Penuelas", "ID_CATASTR": "1345949", "CATEGORIA": "Reserva Nacional", "NOMBRE_UNI": "Lago Penuelas", "REGION": "Valparaiso", "CONDICION": "Regional", "TIPO_DE_PR": "Fiscal", "NUM_PLANO": "V-6-7938-CR", "TERRITORIO": "Continente", "DECRETO": "N° 859 de 1952; N° 284 de 1970; N° 7 de 1985; N° 133 de 1989", "EMISOR_DEC": "Ministerio del Interior; Ministerio de Agricultura; Ministerio de Bienes Nacionales", "LINK": null, "TOTAL VERT": 626 }, "geometry": { "type": "Point", "coordinates": [ -71.482321599735158, -33.166252864049127 ] } },
{ "type": "Feature", "properties": { "fid": 49.0, "SUPERFICIE": "12725", "NOMBRE_TOT": "Reserva Nacional Lago Rosselot", "ID_CATASTR": "1345899", "CATEGORIA": "Reserva Nacional", "NOMBRE_UNI": "Lago Rosselot", "REGION": "Aysen", "CONDICION": "Regional", "TIPO_DE_PR": "Fiscal", "NUM_PLANO": "XI-1-830-CR", "TERRITORIO": "Continente", "DECRETO": "N° 524 de 1968; N° 640 de 1983", "EMISOR_DEC": "Ministerio de Agricultura; Ministerio de Bienes Nacionales", "LINK": null, "TOTAL VERT": 604 }, "geometry": { "type": "Point", "coordinates": [ -72.381150716926285, -44.055786070549047 ] } },
{ "type": "Feature", "properties": { "fid": 50.0, "SUPERFICIE": "604", "NOMBRE_TOT": "Reserva Nacional Laguna De Torca", "ID_CATASTR": "1345895", "CATEGORIA": "Reserva Nacional", "NOMBRE_UNI": "Laguna De Torca", "REGION": "Maule", "CONDICION": "Regional", "TIPO_DE_PR": "Fiscal", "NUM_PLANO": "No menciona Plano", "TERRITORIO": "Continente", "DECRETO": "N° 128 de 1985", "EMISOR_DEC": "Ministerio de Agricultura", "LINK": null, "TOTAL VERT": 372 }, "geometry": { "type": "Point", "coordinates": [ -72.055824837599957, -34.76688976487187 ] } },
{ "type": "Feature", "properties": { "fid": 51.0, "SUPERFICIE": "18414", "NOMBRE_TOT": "Reserva Nacional Laguna Parrillar", "ID_CATASTR": "1345929", "CATEGORIA": "Reserva Nacional", "NOMBRE_UNI": "Laguna Parrillar", "REGION": "Magallanes", "CONDICION": "Regional", "TIPO_DE_PR": "Fiscal", "NUM_PLANO": "No menciona Plano", "TERRITORIO": "Continente", "DECRETO": "N° 147 de 1971; N° 245 de 1977; N° 423 de 1982; N° 123 de 1984; Res. Ex. N° 19 de 1993", "EMISOR_DEC": "Ministerio de Agricultura; Ministerio de Bienes Nacionales", "LINK": null, "TOTAL VERT": 105 }, "geometry": { "type": "Point", "coordinates": [ -71.354102747978104, -53.365123316825134 ] } },
{ "type": "Feature", "properties": { "fid": 52.0, "SUPERFICIE": "4229", "NOMBRE_TOT": "Reserva Nacional Las Chinchillas", "ID_CATASTR": "1345913", "CATEGORIA": "Reserva Nacional", "NOMBRE_UNI": "Las Chinchillas", "REGION": "Coquimbo", "CONDICION": "Regional", "TIPO_DE_PR": "Fiscal", "NUM_PLANO": "IV-3-696", "TERRITORIO": "Continente", "DECRETO": "N° 153 de 1983", "EMISOR_DEC": "Ministerio de Agricultura", "LINK": null, "TOTAL VERT": 403 }, "geometry": { "type": "Point", "coordinates": [ -71.105130585474825, -31.511756934629254 ] } },
{ "type": "Feature", "properties": { "fid": 53.0, "SUPERFICIE": "209131", "NOMBRE_TOT": "Reserva Nacional Las Vicunas", "ID_CATASTR": "1345889", "CATEGORIA": "Reserva Nacional", "NOMBRE_UNI": "Las Vicunas", "REGION": "Arica Y Parinacota", "CONDICION": "Regional", "TIPO_DE_PR": "Fiscal", "NUM_PLANO": "No menciona Plano", "TERRITORIO": "Continente", "DECRETO": "N° 29 de 1983", "EMISOR_DEC": "Ministerio de Agricultura", "LINK": null, "TOTAL VERT": 1521 }, "geometry": { "type": "Point", "coordinates": [ -69.184638238479906, -18.589068238050839 ] } },
{ "type": "Feature", "properties": { "fid": 54.0, "SUPERFICIE": "33972", "NOMBRE_TOT": "Reserva Nacional Llanquihue", "ID_CATASTR": "1345886", "CATEGORIA": "Reserva Nacional", "NOMBRE_UNI": "Llanquihue", "REGION": "Los Lagos", "CONDICION": "Regional", "TIPO_DE_PR": "Fiscal", "NUM_PLANO": "X-3-4005-CR", "TERRITORIO": "Continente", "DECRETO": "N° 750 de 1912; N° 1256 de 1912; N° 735 de 1982; N° 883 de 1988", "EMISOR_DEC": "Ministerio de Relaciones Exteriores; Ministerio de Bienes Nacionales", "LINK": null, "TOTAL VERT": 487 }, "geometry": { "type": "Point", "coordinates": [ -72.488900484198879, -41.386320681647049 ] } },
{ "type": "Feature", "properties": { "fid": 55.0, "SUPERFICIE": "13500", "NOMBRE_TOT": "Reserva Nacional Magallanes", "ID_CATASTR": "1345931", "CATEGORIA": "Reserva Nacional", "NOMBRE_UNI": "Magallanes", "REGION": "Magallanes", "CONDICION": "Regional", "TIPO_DE_PR": "Fiscal", "NUM_PLANO": "No menciona Plano", "TERRITORIO": "Continente", "DECRETO": "N° 1093 de 1932; N° 2444 de 1939", "EMISOR_DEC": "Ministerio de Tierras y Colonización", "LINK": null, "TOTAL VERT": 406 }, "geometry": { "type": "Point", "coordinates": [ -71.139463097338847, -53.160582061777397 ] } },
{ "type": "Feature", "properties": { "fid": 56.0, "SUPERFICIE": "13882", "NOMBRE_TOT": "Reserva Nacional Malalcahuello", "ID_CATASTR": "1345938", "CATEGORIA": "Reserva Nacional", "NOMBRE_UNI": "Malalcahuello", "REGION": "Araucania", "CONDICION": "Regional", "TIPO_DE_PR": "Fiscal", "NUM_PLANO": "No menciona Plano", "TERRITORIO": "Continente", "DECRETO": "N° 1670 de 1931; N° 131 de 1987", "EMISOR_DEC": "Ministerio de la Propiedad Austral; Ministerio de Bienes Nacionales", "LINK": null, "TOTAL VERT": 1072 }, "geometry": { "type": "Point", "coordinates": [ -71.557328224902733, -38.419728216531155 ] } },
{ "type": "Feature", "properties": { "fid": 57.0, "SUPERFICIE": "16438", "NOMBRE_TOT": "Reserva Nacional Malleco", "ID_CATASTR": "1345867", "CATEGORIA": "Reserva Nacional", "NOMBRE_UNI": "Malleco", "REGION": "Araucania", "CONDICION": "Regional", "TIPO_DE_PR": "Fiscal", "NUM_PLANO": "No menciona Plano", "TERRITORIO": "Continente", "DECRETO": "N° 1540 de 1907; N° 2489 de 1935; N° 28 de 1985", "EMISOR_DEC": "Ministerio de Relaciones Exteriores; Ministerio de Tierras y Colonización; Ministerio de Bienes Nacionales", "LINK": null, "TOTAL VERT": 740 }, "geometry": { "type": "Point", "coordinates": [ -71.778725159496815, -38.138397539763758 ] } },
{ "type": "Feature", "properties": { "fid": 58.0, "SUPERFICIE": "13775", "NOMBRE_TOT": "Reserva Nacional Nalcas", "ID_CATASTR": "1345942", "CATEGORIA": "Reserva Nacional", "NOMBRE_UNI": "Nalcas", "REGION": "Araucania", "CONDICION": "Regional", "TIPO_DE_PR": "Fiscal", "NUM_PLANO": "No menciona Plano", "TERRITORIO": "Continente", "DECRETO": "N° 604 de 1967", "EMISOR_DEC": "Ministerio de Agricultura", "LINK": null, "TOTAL VERT": 1054 }, "geometry": { "type": "Point", "coordinates": [ -71.54611786674856, -38.290979871707513 ] } },
{ "type": "Feature", "properties": { "fid": 60.0, "SUPERFICIE": "55948", "NOMBRE_TOT": "Reserva Nacional Nuble", "ID_CATASTR": "1345873", "CATEGORIA": "Reserva Nacional", "NOMBRE_UNI": "Nuble", "REGION": "Nuble - Biobio", "CONDICION": "Bi-Regional", "TIPO_DE_PR": "Fiscal", "NUM_PLANO": "No menciona Plano", "TERRITORIO": "Continente", "DECRETO": "N° 384 de 1978", "EMISOR_DEC": "Ministerio de Agricultura", "LINK": null, "TOTAL VERT": 872 }, "geometry": { "type": "Point", "coordinates": [ -71.289537441073662, -37.078124817602664 ] } },
{ "type": "Feature", "properties": { "fid": 61.0, "SUPERFICIE": "859,3", "NOMBRE_TOT": "Reserva Nacional Pinguino De Humbolt", "ID_CATASTR": "1345955", "CATEGORIA": "Reserva Nacional", "NOMBRE_UNI": "Pinguino De Humbolt", "REGION": "Coquimbo - Atacama", "CONDICION": "Bi-Regional", "TIPO_DE_PR": "Fiscal", "NUM_PLANO": "No menciona Plano", "TERRITORIO": "Continente", "DECRETO": "N° 4 de 1990", "EMISOR_DEC": "Ministerio de Minería", "LINK": null, "TOTAL VERT": 1941 }, "geometry": { "type": "Point", "coordinates": [ -71.562157728907792, -29.127023368108297 ] } },
{ "type": "Feature", "properties": { "fid": 62.0, "SUPERFICIE": "12421,2", "NOMBRE_TOT": "Reserva Nacional Ralco", "ID_CATASTR": "1345893", "CATEGORIA": "Reserva Nacional", "NOMBRE_UNI": "Ralco", "REGION": "Biobio", "CONDICION": "Regional", "TIPO_DE_PR": "Fiscal", "NUM_PLANO": "VIII-4-4366-CR", "TERRITORIO": "Continente", "DECRETO": "Ley N° 17699 de 1972; N° 429 de 1987; N° 249 de 1989", "EMISOR_DEC": "Ministerio de Bienes Nacionales", "LINK": null, "TOTAL VERT": 648 }, "geometry": { "type": "Point", "coordinates": [ -71.403939627584577, -37.924591112601512 ] } },
{ "type": "Feature", "properties": { "fid": 63.0, "SUPERFICIE": "38582", "NOMBRE_TOT": "Reserva Nacional Rio Los Cipreses", "ID_CATASTR": "1345920", "CATEGORIA": "Reserva Nacional", "NOMBRE_UNI": "Rios De Los Cipreses", "REGION": "O Higgins", "CONDICION": "Regional", "TIPO_DE_PR": "Fiscal", "NUM_PLANO": "VI-1-2799-CR", "TERRITORIO": "Continente", "DECRETO": "N° 127 de 1985", "EMISOR_DEC": "Ministerio de Agricultura", "LINK": null, "TOTAL VERT": 899 }, "geometry": { "type": "Point", "coordinates": [ -70.411545005314778, -34.477968175018347 ] } },
{ "type": "Feature", "properties": { "fid": 64.0, "SUPERFICIE": "2305", "NOMBRE_TOT": "Reserva Nacional Trapananda", "ID_CATASTR": "1345902", "CATEGORIA": "Reserva Nacional", "NOMBRE_UNI": "Trapananda", "REGION": "Aysen", "CONDICION": "Regional", "TIPO_DE_PR": "Fiscal", "NUM_PLANO": "XI-2-2165-CR", "TERRITORIO": "Continente", "DECRETO": "N° 357 de 1992", "EMISOR_DEC": "Ministerio de Bienes Nacionales", "LINK": null, "TOTAL VERT": 64 }, "geometry": { "type": "Point", "coordinates": [ -71.790726683889872, -45.352561056382861 ] } },
{ "type": "Feature", "properties": { "fid": 65.0, "SUPERFICIE": "73986,5", "NOMBRE_TOT": "Reserva Nacional Los Flamencos", "ID_CATASTR": "1345925", "CATEGORIA": "Reserva Nacional", "NOMBRE_UNI": "Los Flamencos", "REGION": "Antofagasta", "CONDICION": "Regional", "TIPO_DE_PR": "Fiscal", "NUM_PLANO": "II-3-3233-CR II-3-3229 CR II-3-3230 CR II-3-3232 CR II-3-3231 CR II-3-3235 CR", "TERRITORIO": "Continente", "DECRETO": "N° 50 de 1990", "EMISOR_DEC": "Ministerio de Agricultura", "LINK": null, "TOTAL VERT": 87 }, "geometry": { "type": "Point", "coordinates": [ -67.637442818562249, -23.196791833004198 ] } },
{ "type": "Feature", "properties": { "fid": 66.0, "SUPERFICIE": "89,06", "NOMBRE_TOT": "Reserva Nacional Los Ruiles", "ID_CATASTR": "1345958", "CATEGORIA": "Reserva Nacional", "NOMBRE_UNI": "Los Ruiles", "REGION": "Maule", "CONDICION": "Regional", "TIPO_DE_PR": "Fiscal", "NUM_PLANO": "07202-11811-CR", "TERRITORIO": "Continente", "DECRETO": "N° 94 de 1982; N° 102 de 2017", "EMISOR_DEC": "Ministerio de Agricultura; Ministerio de Bienes Nacionales", "LINK": null, "TOTAL VERT": 368 }, "geometry": { "type": "Point", "coordinates": [ -72.479336261317869, -35.792081951032941 ] } },
{ "type": "Feature", "properties": { "fid": 77.0, "SUPERFICIE": "2022,8", "NOMBRE_TOT": "Reserva Nacional Los Huemules Del Niblinto", "ID_CATASTR": "1345892", "CATEGORIA": "Reserva Nacional", "NOMBRE_UNI": "Los Huemules Del Niblinto", "REGION": "Nuble", "CONDICION": "Regional", "TIPO_DE_PR": "Fiscal", "NUM_PLANO": "VIII-1-20878-CR", "TERRITORIO": "Continente", "DECRETO": "N° 32 de 1999", "EMISOR_DEC": "Ministerio de Bienes Nacionales", "LINK": null, "TOTAL VERT": 248 }, "geometry": { "type": "Point", "coordinates": [ -71.490147849633644, -36.77229816981022 ] } },
{ "type": "Feature", "properties": { "fid": 79.0, "SUPERFICIE": "49391", "NOMBRE_TOT": "Reserva Nacional Lago Palena", "ID_CATASTR": "1345884", "CATEGORIA": "Reserva Nacional", "NOMBRE_UNI": "Lago Palena", "REGION": "Los Lagos", "CONDICION": "Regional", "TIPO_DE_PR": "Fiscal", "NUM_PLANO": "No menciona Plano", "TERRITORIO": "Continente", "DECRETO": "N° 159 de 1965; N° 278 de 1970", "EMISOR_DEC": "Ministerio de Agricultura", "LINK": null, "TOTAL VERT": 2185 }, "geometry": { "type": "Point", "coordinates": [ -71.809602450141881, -43.933859790293361 ] } },
{ "type": "Feature", "properties": { "fid": 80.0, "SUPERFICIE": "61352", "NOMBRE_TOT": "Reserva Nacional Villarrica", "ID_CATASTR": "1345878", "CATEGORIA": "Reserva Nacional", "NOMBRE_UNI": "Villarrica", "REGION": "Araucania", "CONDICION": "Regional", "TIPO_DE_PR": "Fiscal", "NUM_PLANO": "No menciona Plano", "TERRITORIO": "Continente", "DECRETO": "N° 378 de 1925; N° 8129 de 1929; N° 1722 de 1912", "EMISOR_DEC": "Ministerio de Tierras y Colonización", "LINK": null, "TOTAL VERT": 3142 }, "geometry": { "type": "Point", "coordinates": [ -71.452233468281207, -39.168646512170696 ] } },
{ "type": "Feature", "properties": { "fid": 82.0, "SUPERFICIE": "145", "NOMBRE_TOT": "Reserva Nacional Federico Albert", "ID_CATASTR": "1345917", "CATEGORIA": "Reserva Nacional", "NOMBRE_UNI": "Federico Albert", "REGION": "Maule", "CONDICION": "Regional", "TIPO_DE_PR": "Fiscal", "NUM_PLANO": "VII-4-101", "TERRITORIO": "Continente", "DECRETO": "N° 257 de 1981", "EMISOR_DEC": "Ministerio de Bienes Nacionales", "LINK": null, "TOTAL VERT": 115 }, "geometry": { "type": "Point", "coordinates": [ -72.541093561514302, -35.730813025305885 ] } },
{ "type": "Feature", "properties": { "fid": 89.0, "SUPERFICIE": "41620,5", "NOMBRE_TOT": "Reserva Nacional Rio Simpson", "ID_CATASTR": "1345934", "CATEGORIA": "Reserva Nacional", "NOMBRE_UNI": "Rio Simpson", "REGION": "Aysen", "CONDICION": "Regional", "TIPO_DE_PR": "Fiscal", "NUM_PLANO": "XI-1-2231-CR", "TERRITORIO": "Continente", "DECRETO": "N° 322 de 1967; N° 285 de 1970; N° 1060 de 1999", "EMISOR_DEC": "Ministerio de Agricultura; Ministerio de Bienes Nacionales", "LINK": null, "TOTAL VERT": 783 }, "geometry": { "type": "Point", "coordinates": [ -72.315584067569205, -45.502831479705954 ] } },
{ "type": "Feature", "properties": { "fid": 90.0, "SUPERFICIE": "717", "NOMBRE_TOT": "Reserva Nacional Los Bellotos Del Melado", "ID_CATASTR": "1345952", "CATEGORIA": "Reserva Nacional", "NOMBRE_UNI": "Los Bellotos Del Melado", "REGION": "Maule", "CONDICION": "Regional", "TIPO_DE_PR": "Fiscal", "NUM_PLANO": "No menciona Plano", "TERRITORIO": "Continente", "DECRETO": "N° 18 de 1995; N° 43 de 2016", "EMISOR_DEC": "Ministerio de Agricultura; Ministerio del Medio Ambiente", "LINK": null, "TOTAL VERT": 246 }, "geometry": { "type": "Point", "coordinates": [ -71.107823481214922, -35.868000941171054 ] } },
{ "type": "Feature", "properties": { "fid": 93.0, "SUPERFICIE": "10175", "NOMBRE_TOT": "Reserva Nacional Rio Blanco", "ID_CATASTR": "1345950", "CATEGORIA": "Reserva Nacional", "NOMBRE_UNI": "Rio Blanco", "REGION": "Valparaiso", "CONDICION": "Regional", "TIPO_DE_PR": "Fiscal", "NUM_PLANO": "No menciona Plano", "TERRITORIO": "Continente", "DECRETO": "N° 2499 de 1932; N° 871 de 1957; N° 66 de 1977", "EMISOR_DEC": "Ministerio de Agricultura; Ministerio de Tierras y Colonización", "LINK": null, "TOTAL VERT": 44 }, "geometry": { "type": "Point", "coordinates": [ -70.311338228760206, -32.953456174696093 ] } },
{ "type": "Feature", "properties": { "fid": 102.0, "SUPERFICIE": "1009,34", "NOMBRE_TOT": "Reserva Nacional Radal Siete Tazas", "ID_CATASTR": "1345916", "CATEGORIA": "Reserva Nacional", "NOMBRE_UNI": "Radal Siete Tazas", "REGION": "Maule", "CONDICION": "Regional", "TIPO_DE_PR": "Fiscal", "NUM_PLANO": "VII-1-4088-CR", "TERRITORIO": "Continente", "DECRETO": "N° 89 de 1996; N° 15 de 2008", "EMISOR_DEC": "Ministerio de Bienes Nacionales", "LINK": null, "TOTAL VERT": 560 }, "geometry": { "type": "Point", "coordinates": [ -71.026243014366813, -35.441497451273129 ] } },
{ "type": "Feature", "properties": { "fid": 103.0, "SUPERFICIE": "2181,66", "NOMBRE_TOT": "Reserva Nacional Isla Mocha", "ID_CATASTR": "1345908", "CATEGORIA": "Reserva Nacional", "NOMBRE_UNI": "Isla Mocha", "REGION": "Biobio", "CONDICION": "Regional", "TIPO_DE_PR": "Fiscal", "NUM_PLANO": "08201-4401", "TERRITORIO": "Continente", "DECRETO": "N° 67 de 1979; N° 70 de 1988; N° 172 de 2010", "EMISOR_DEC": "Ministerio de Agricultura; Ministerio de Bienes Nacionales", "LINK": null, "TOTAL VERT": 188 }, "geometry": { "type": "Point", "coordinates": [ -73.912472815528162, -38.375896040287536 ] } },
{ "type": "Feature", "properties": { "fid": 104.0, "SUPERFICIE": "18855,71", "NOMBRE_TOT": "Reserva Nacional Altos De Pemehue", "ID_CATASTR": "1345918", "CATEGORIA": "Reserva Nacional", "NOMBRE_UNI": "Altos De Pemehue", "REGION": "Biobio", "CONDICION": "Regional", "TIPO_DE_PR": "Fiscal", "NUM_PLANO": "08308-1877-CR", "TERRITORIO": "Continente", "DECRETO": "N° 80 de 2009", "EMISOR_DEC": "Ministerio de Bienes Nacionales", "LINK": null, "TOTAL VERT": 1610 }, "geometry": { "type": "Point", "coordinates": [ -71.641825757213908, -37.979537763511871 ] } },
{ "type": "Feature", "properties": { "fid": 107.0, "SUPERFICIE": "16516", "NOMBRE_TOT": "Reserva Nacional Lago Las Torres", "ID_CATASTR": "1345903", "CATEGORIA": "Reserva Nacional", "NOMBRE_UNI": "Lago Las Torres", "REGION": "Aysen", "CONDICION": "Regional", "TIPO_DE_PR": "Fiscal", "NUM_PLANO": "No menciona Plano", "TERRITORIO": "Continente", "DECRETO": "N° 58 de 1969; N° 632 de 1982; N° 849 de 1982", "EMISOR_DEC": "Ministerio de Agricultura; Ministerio de Bienes Nacionales", "LINK": null, "TOTAL VERT": 700 }, "geometry": { "type": "Point", "coordinates": [ -72.1209010597846, -44.798340176932435 ] } }
]
}
