{"type":"FeatureCollection","name":"geonoxa_tosearch_zonas","crs":{"type":"name","properties":{"name":"urn:ogc:def:crs:OGC:1.3:CRS84"}},"features":[{"type":"Feature","properties":{"familia":"zonas","tipo_objeto":"Zona Saturada","id_objeto":1,"nombre_objeto":"Temuco y Padre las Casas","nombre_zona":"Temuco y Padre las Casas","zona_dec":"Saturada","contaminante":"MP10 diaria - MP 2.5 diaria","saturado":"MP10 diaria - MP 2.5 diaria (Material particulado respirable)","latentes":"No aplica","decreto":"D.S. Nº 35 de 2005/D.S. Nº 2 de 2013","link":"http://bcn.cl/1vjpd http://bcn.cl/1yv0r","cut_reg":"09","superficie":86717.1891797766,"bbox":[-72.8416044,-38.8780409,-72.3812808,-38.5521256],"lat":-38.71490745,"lon":-72.6381610895543,"nombre_busq":"Temuco y Padre las Casas Saturada MP10 diaria - MP 2.5 diaria (Material particulado respirable) No aplica MP10 diaria - MP 2.5 diaria D.S. Nº 35 de 2005/D.S. Nº 2 de 2013 09","source_file":"geonoxa_zonas_panel.geojson"},"geometry":{"type":"Point","coordinates":[-72.6381610895543,-38.71490745]}},{"type":"Feature","properties":{"familia":"zonas","tipo_objeto":"Zona Saturada","id_objeto":2,"nombre_objeto":"Calama","nombre_zona":"Calama","zona_dec":"Saturada","contaminante":"MP10 anual","saturado":"MP10 anual (Material particulado respirable)","latentes":"No aplica","decreto":"D.S. Nº 57 de 2009","link":"http://bcn.cl/23uoe","cut_reg":"02","superficie":144114.64062314067,"bbox":[-69.0,-22.5616872,-68.6887463,-22.1548543],"lat":-22.3582677,"lon":-68.84459843629111,"nombre_busq":"Calama Saturada MP10 anual (Material particulado respirable) No aplica MP10 anual D.S. Nº 57 de 2009 02","source_file":"geonoxa_zonas_panel.geojson"},"geometry":{"type":"Point","coordinates":[-68.84459843629111,-22.3582677]}},{"type":"Feature","properties":{"familia":"zonas","tipo_objeto":"Zona Saturada","id_objeto":3,"nombre_objeto":"Valle Central de la VI región","nombre_zona":"Valle Central de la VI región","zona_dec":"Saturada","contaminante":"MP10 anual y diaria","saturado":"MP10 (Material particulado respirable) anual y diaria","latentes":"No aplica","decreto":"D.S. Nº 07 de 2009 / D.S. Nº 42/2017","link":"http://bcn.cl/1zae5 http://bcn.cl/25eau","cut_reg":"06","superficie":357944.1622516957,"bbox":[-71.2927176,-35.0031435,-70.3795966,-33.8962226],"lat":-34.38387015,"lon":-70.94921578725175,"nombre_busq":"Valle Central de la VI región Saturada MP10 (Material particulado respirable) anual y diaria No aplica MP10 anual y diaria D.S. Nº 07 de 2009 / D.S. Nº 42/2017 06","source_file":"geonoxa_zonas_panel.geojson"},"geometry":{"type":"Point","coordinates":[-70.94921578725175,-34.38387015]}},{"type":"Feature","properties":{"familia":"zonas","tipo_objeto":"Zona Saturada","id_objeto":4,"nombre_objeto":"Andacollo","nombre_zona":"Andacollo","zona_dec":"Saturada","contaminante":"MP10 anual y diaria","saturado":"MP10 (Material particulado respirable) anual y diaria","latentes":"No aplica","decreto":"D.S. Nº 08 de 2009","link":"http://bcn.cl/1v1wu","cut_reg":"04","superficie":6052.496489890826,"bbox":[-71.1441446,-30.2880169,-71.0521702,-30.2027912],"lat":-30.237548949999997,"lon":-71.09932090663642,"nombre_busq":"Andacollo Saturada MP10 (Material particulado respirable) anual y diaria No aplica MP10 anual y diaria D.S. Nº 08 de 2009 04","source_file":"geonoxa_zonas_panel.geojson"},"geometry":{"type":"Point","coordinates":[-71.09932090663642,-30.237548949999997]}},{"type":"Feature","properties":{"familia":"zonas","tipo_objeto":"Zona Saturada","id_objeto":5,"nombre_objeto":"Tocopilla","nombre_zona":"Tocopilla","zona_dec":"Saturada","contaminante":"MP10 anual","saturado":"MP10 anual (Material particulado respirable)","latentes":"No aplica","decreto":"D.S. Nº 50 de 2007","link":"http://bcn.cl/1zx11","cut_reg":"02","superficie":10317.08463931197,"bbox":[-70.2266808,-22.14217,-70.1336708,-22.0287781],"lat":-22.08538245,"lon":-70.17412842975921,"nombre_busq":"Tocopilla Saturada MP10 anual (Material particulado respirable) No aplica MP10 anual D.S. Nº 50 de 2007 02","source_file":"geonoxa_zonas_panel.geojson"},"geometry":{"type":"Point","coordinates":[-70.17412842975921,-22.08538245]}},{"type":"Feature","properties":{"familia":"zonas","tipo_objeto":"Zona Saturada / Latente","id_objeto":6,"nombre_objeto":"Concepción","nombre_zona":"Concepción","zona_dec":"Latente","contaminante":"MP10","saturado":"No aplica","latentes":"MP10 (Material particulado respirable)","decreto":"D.S. Nº 41 de 2006","link":"http://bcn.cl/1xotm","cut_reg":"08","superficie":206041.541277422,"bbox":[-73.2186228,-37.2056391,-72.7071309,-36.4428381],"lat":-36.8252559,"lon":-73.00455517875068,"nombre_busq":"Concepción Latente No aplica MP10 (Material particulado respirable) MP10 D.S. Nº 41 de 2006 08","source_file":"geonoxa_zonas_panel.geojson"},"geometry":{"type":"Point","coordinates":[-73.00455517875068,-36.8252559]}},{"type":"Feature","properties":{"familia":"zonas","tipo_objeto":"Zona Saturada","id_objeto":7,"nombre_objeto":"Maule y Talca","nombre_zona":"Maule y Talca","zona_dec":"Saturada","contaminante":"MP10 anual y diaria","saturado":"MP10 (Material particulado respirable) anual y diaria","latentes":"No aplica","decreto":"D.S. Nº 12 de 2010","link":"http://bcn.cl/29zln","cut_reg":"06","superficie":46891.427587899205,"bbox":[-71.884121,-35.5864846,-71.4923227,-35.3121394],"lat":-35.4492989,"lon":-71.61184822264548,"nombre_busq":"Maule y Talca Saturada MP10 (Material particulado respirable) anual y diaria No aplica MP10 anual y diaria D.S. Nº 12 de 2010 06","source_file":"geonoxa_zonas_panel.geojson"},"geometry":{"type":"Point","coordinates":[-71.61184822264548,-35.4492989]}},{"type":"Feature","properties":{"familia":"zonas","tipo_objeto":"Zona Saturada","id_objeto":8,"nombre_objeto":"María Elena y Pedro de Valdivia","nombre_zona":"María Elena y Pedro de Valdivia","zona_dec":"Saturada","contaminante":"MP10 diaria","saturado":"MP10 diaria (Material particulado respirable)","latentes":"No aplica","decreto":"D.S. Nº 1.162 de 1993","link":"http://bcn.cl/1wcpy","cut_reg":"02","superficie":142162.14780752643,"bbox":[-69.7525242,-22.7532505,-69.50153,-22.2506845],"lat":-22.501955549999998,"lon":-69.62680335550247,"nombre_busq":"María Elena y Pedro de Valdivia Saturada MP10 diaria (Material particulado respirable) No aplica MP10 diaria D.S. Nº 1.162 de 1993 02","source_file":"geonoxa_zonas_panel.geojson"},"geometry":{"type":"Point","coordinates":[-69.62680335550247,-22.501955549999998]}},{"type":"Feature","properties":{"familia":"zonas","tipo_objeto":"Zona Saturada","id_objeto":9,"nombre_objeto":"Fundición Hernán Videla Lira","nombre_zona":"Fundición Hernán Videla Lira","zona_dec":"Saturada","contaminante":"SO2 diaria","saturado":"SO2 diaria (Anhidrido sulfuroso)","latentes":"No aplica","decreto":"D.S. Nº 255 de 1993","link":"http://bcn.cl/21xdj","cut_reg":"03","superficie":79424.876285067,"bbox":[-70.3775,-27.731,-70.0852,-27.3493],"lat":-27.5342,"lon":-70.22516247482832,"nombre_busq":"Fundición Hernán Videla Lira Saturada SO2 diaria (Anhidrido sulfuroso) No aplica SO2 diaria D.S. Nº 255 de 1993 03","source_file":"geonoxa_zonas_panel.geojson"},"geometry":{"type":"Point","coordinates":[-70.22516247482832,-27.5342]}},{"type":"Feature","properties":{"familia":"zonas","tipo_objeto":"Zona Saturada","id_objeto":10,"nombre_objeto":"Fundición Ventanas","nombre_zona":"Fundición Ventanas","zona_dec":"Saturada","contaminante":"SO2 - MP10","saturado":"SO2 (Anhidrido sulfuroso) - MP10 (Material particulado respirable)","latentes":"No aplica","decreto":"D.S. Nº 346 de 1994","link":"http://bcn.cl/24z6w","cut_reg":"05","superficie":34988.76540882518,"bbox":[-71.5469224,-32.883746,-71.2900181,-32.6257782],"lat":-32.75480335,"lon":-71.39828679907745,"nombre_busq":"Fundición Ventanas Saturada SO2 (Anhidrido sulfuroso) - MP10 (Material particulado respirable) No aplica SO2 - MP10 D.S. Nº 346 de 1994 05","source_file":"geonoxa_zonas_panel.geojson"},"geometry":{"type":"Point","coordinates":[-71.39828679907745,-32.75480335]}},{"type":"Feature","properties":{"familia":"zonas","tipo_objeto":"Zona Saturada","id_objeto":11,"nombre_objeto":"Fundición Caletones","nombre_zona":"Fundición Caletones","zona_dec":"Saturada","contaminante":"SO2 diaria - MP10 diaria","saturado":"SO2 (Anhidrido sulfuroso) diaria - MP10 diaria (Material particulado respirable)","latentes":"No aplica","decreto":"D.S. Nº 179 de 1994","link":"http://bcn.cl/23ewa","cut_reg":"05","superficie":129381.15545441964,"bbox":[-70.63849,-34.3419381,-70.2612892,-33.8435614],"lat":-34.092415700000004,"lon":-70.43016481078755,"nombre_busq":"Fundición Caletones Saturada SO2 (Anhidrido sulfuroso) diaria - MP10 diaria (Material particulado respirable) No aplica SO2 diaria - MP10 diaria D.S. Nº 179 de 1994 05","source_file":"geonoxa_zonas_panel.geojson"},"geometry":{"type":"Point","coordinates":[-70.43016481078755,-34.092415700000004]}},{"type":"Feature","properties":{"familia":"zonas","tipo_objeto":"Zona Saturada / Latente","id_objeto":12,"nombre_objeto":"Region Metropolitana","nombre_zona":"Region Metropolitana","zona_dec":"Saturada / Latente","contaminante":"O3 horaria - MP2,5 diaria y MP10 diaria - CO 1 y 8 horas","saturado":"O3 horaria (Ozono) - MP2,5 diaria y MP10 diaria (Material particulado respirable) - CO 1 y 8 horas (Monoxido de carbono)","latentes":"NO2 (Dioxido de nitrogeno) anual","decreto":"D.S. Nº 131 de 1996 / D.S. Nº 67 de 2014","link":"http://bcn.cl/1zypa http://bcn.cl/1yfc7","cut_reg":"13","superficie":1540556.3402453156,"bbox":[-71.712345,-34.2928899,-69.7684143,-32.9202278],"lat":-33.606973350000004,"lon":-70.60414840632274,"nombre_busq":"Region Metropolitana Saturada / Latente O3 horaria (Ozono) - MP2,5 diaria y MP10 diaria (Material particulado respirable) - CO 1 y 8 horas (Monoxido de carbono) NO2 (Dioxido de nitrogeno) anual O3 horaria - MP2,5 diaria y MP10 diaria - CO 1 y 8 horas D.S. Nº 131 de 1996 / D.S. Nº 67 de 2014 13","source_file":"geonoxa_zonas_panel.geojson"},"geometry":{"type":"Point","coordinates":[-70.60414840632274,-33.606973350000004]}},{"type":"Feature","properties":{"familia":"zonas","tipo_objeto":"Zona Saturada","id_objeto":13,"nombre_objeto":"Osorno","nombre_zona":"Osorno","zona_dec":"Saturada","contaminante":"MP10 diaria y anual - MP 2.5 diaria y anual","saturado":"MP10 diaria y anual - MP 2.5 diaria y anual (Material particulado respirable)","latentes":"No aplica","decreto":"D.S. Nº 27 de 2013","link":"http://bcn.cl/1xarm","cut_reg":"10","superficie":95343.41157241643,"bbox":[-73.4179948,-40.7883298,-72.7686901,-40.4200119],"lat":-40.6042883,"lon":-73.1233424273311,"nombre_busq":"Osorno Saturada MP10 diaria y anual - MP 2.5 diaria y anual (Material particulado respirable) No aplica MP10 diaria y anual - MP 2.5 diaria y anual D.S. Nº 27 de 2013 10","source_file":"geonoxa_zonas_panel.geojson"},"geometry":{"type":"Point","coordinates":[-73.1233424273311,-40.6042883]}},{"type":"Feature","properties":{"familia":"zonas","tipo_objeto":"Zona Saturada / Latente","id_objeto":14,"nombre_objeto":"Chillán","nombre_zona":"Chillán","zona_dec":"Saturada / Latente","contaminante":"MP10 diaria - MP 2.5 diaria","saturado":"MP10 diaria - MP 2.5 diaria (Material particulado respirable)","latentes":"MP10 anual (Material particulado respirable)","decreto":"D.S. Nº 36 de 2013","link":"http://bcn.cl/1voo9","cut_reg":"08","superficie":73788.74306532796,"bbox":[-72.4653869,-36.7504538,-71.8578672,-36.5066436],"lat":-36.628531300000006,"lon":-72.19467222740464,"nombre_busq":"Chillán Saturada / Latente MP10 diaria - MP 2.5 diaria (Material particulado respirable) MP10 anual (Material particulado respirable) MP10 diaria - MP 2.5 diaria D.S. Nº 36 de 2013 08","source_file":"geonoxa_zonas_panel.geojson"},"geometry":{"type":"Point","coordinates":[-72.19467222740464,-36.628531300000006]}},{"type":"Feature","properties":{"familia":"zonas","tipo_objeto":"Zona Saturada / Latente","id_objeto":15,"nombre_objeto":"Huasco","nombre_zona":"Huasco","zona_dec":"Latente","contaminante":"MP10 anual","saturado":"No aplica","latentes":"MP10 anual (Material particulado respirable)","decreto":"D.S. Nº 40 de 2012","link":"http://bcn.cl/252ub","cut_reg":"03","superficie":17802.896011568333,"bbox":[-71.3166489,-28.5872458,-71.119399,-28.3597215],"lat":-28.47347755,"lon":-71.20545553782895,"nombre_busq":"Huasco Latente No aplica MP10 anual (Material particulado respirable) MP10 anual D.S. Nº 40 de 2012 03","source_file":"geonoxa_zonas_panel.geojson"},"geometry":{"type":"Point","coordinates":[-71.20545553782895,-28.47347755]}},{"type":"Feature","properties":{"familia":"zonas","tipo_objeto":"Zona Saturada","id_objeto":16,"nombre_objeto":"Coyhaique","nombre_zona":"Coyhaique","zona_dec":"Saturada","contaminante":"MP10 diaria y anual","saturado":"MP10 (Material particulado respirable) diaria y anual","latentes":"No aplica","decreto":"D.S. Nº 33 de 2012 / D.S. Nº 15 de 2016","link":"http://bcn.cl/25249 http://bcn.cl/208ym","cut_reg":"11","superficie":11771.139149102783,"bbox":[-72.1328218,-45.6298525,-71.926552,-45.5271943],"lat":-45.58578815,"lon":-72.04926621864627,"nombre_busq":"Coyhaique Saturada MP10 (Material particulado respirable) diaria y anual No aplica MP10 diaria y anual D.S. Nº 33 de 2012 / D.S. Nº 15 de 2016 11","source_file":"geonoxa_zonas_panel.geojson"},"geometry":{"type":"Point","coordinates":[-72.04926621864627,-45.58578815]}},{"type":"Feature","properties":{"familia":"zonas","tipo_objeto":"Zona Saturada","id_objeto":17,"nombre_objeto":"Fundición Potrerillos","nombre_zona":"Fundición Potrerillos","zona_dec":"Saturada","contaminante":"SO2 anual y diaria - MP10 diaria","saturado":"SO2 anual y diaria (Anhidrido sulfuroso) - MP10 diaria (Material particulado respirable)","latentes":"No aplica","decreto":"D.S. Nº 18 de 1997","link":"http://bcn.cl/1zypi","cut_reg":"03","superficie":739.4128101841688,"bbox":[-69.5050963,-26.4520713,-69.4656322,-26.4255569],"lat":-26.435336900000003,"lon":-69.48682289660462,"nombre_busq":"Fundición Potrerillos Saturada SO2 anual y diaria (Anhidrido sulfuroso) - MP10 diaria (Material particulado respirable) No aplica SO2 anual y diaria - MP10 diaria D.S. Nº 18 de 1997 03","source_file":"geonoxa_zonas_panel.geojson"},"geometry":{"type":"Point","coordinates":[-69.48682289660462,-26.435336900000003]}},{"type":"Feature","properties":{"familia":"zonas","tipo_objeto":"Zona Saturada / Latente","id_objeto":18,"nombre_objeto":"Fundición Chuquicamata","nombre_zona":"Fundición Chuquicamata","zona_dec":"Saturada / Latente","contaminante":"MP10 anual","saturado":"MP10 (Material particulado respirable) anual","latentes":"SO2 (Anhidrido sulfuroso) diaria","decreto":"D.S. Nº 185 de 1991/D.S. Nº 55 de 2005","link":"http://bcn.cl/1xegw","cut_reg":"02","superficie":4903.708198410413,"bbox":[-68.9437641,-22.3299794,-68.8757661,-22.2667034],"lat":-22.29834135,"lon":-68.90977272046433,"nombre_busq":"Fundición Chuquicamata Saturada / Latente MP10 (Material particulado respirable) anual SO2 (Anhidrido sulfuroso) diaria MP10 anual D.S. Nº 185 de 1991/D.S. Nº 55 de 2005 02","source_file":"geonoxa_zonas_panel.geojson"},"geometry":{"type":"Point","coordinates":[-68.90977272046433,-22.29834135]}},{"type":"Feature","properties":{"familia":"zonas","tipo_objeto":"Zona Saturada","id_objeto":19,"nombre_objeto":"Valdivia","nombre_zona":"Valdivia","zona_dec":"Saturada","contaminante":"MP10 diaria y anual - MP 2.5 diaria","saturado":"MP10 diaria y anual - MP 2.5 diaria (Material particulado respirable)","latentes":"No aplica","decreto":"D.S. Nº 17 de 2014","link":"http://bcn.cl/24z0o","cut_reg":"14","superficie":95161.72773798501,"bbox":[-73.4118771,-40.0319186,-72.9208592,-39.637246],"lat":-39.86036585,"lon":-73.07246159457614,"nombre_busq":"Valdivia Saturada MP10 diaria y anual - MP 2.5 diaria (Material particulado respirable) No aplica MP10 diaria y anual - MP 2.5 diaria D.S. Nº 17 de 2014 14","source_file":"geonoxa_zonas_panel.geojson"},"geometry":{"type":"Point","coordinates":[-73.07246159457614,-39.86036585]}},{"type":"Feature","properties":{"familia":"zonas","tipo_objeto":"Zona Saturada","id_objeto":20,"nombre_objeto":"Los Ángeles","nombre_zona":"Los Ángeles","zona_dec":"Saturada","contaminante":"MP10 diaria - MP 2.5 diaria","saturado":"MP10 diaria - MP 2.5 diaria (Material particulado respirable)","latentes":"No aplica","decreto":"D.S. Nº 11 de 2015","link":"http://bcn.cl/1vwxa","cut_reg":"08","superficie":174997.08597133635,"bbox":[-72.6841269,-37.6630913,-72.0399878,-37.1786066],"lat":-37.4206609,"lon":-72.3726410598185,"nombre_busq":"Los Ángeles Saturada MP10 diaria - MP 2.5 diaria (Material particulado respirable) No aplica MP10 diaria - MP 2.5 diaria D.S. Nº 11 de 2015 08","source_file":"geonoxa_zonas_panel.geojson"},"geometry":{"type":"Point","coordinates":[-72.3726410598185,-37.4206609]}},{"type":"Feature","properties":{"familia":"zonas","tipo_objeto":"Zona Saturada / Latente","id_objeto":21,"nombre_objeto":"Concón- Quintero-Puchuncaví","nombre_zona":"Concón- Quintero-Puchuncaví","zona_dec":"Saturada / Latente","contaminante":"MP 2.5 anual","saturado":"MP 2.5 (Material particulado respirable) anual","latentes":"MP10 anual - MP 2.5 diaria (Material particulado respirable)","decreto":"D.S. Nº 364 de 1994 / D.S. Nº 10 de 2015","link":"http://bcn.cl/1xvc8","cut_reg":"05","superficie":52508.32805093508,"bbox":[-71.5552395,-33.0025696,-71.2773851,-32.6268088],"lat":-32.814634,"lon":-71.43382475473231,"nombre_busq":"Concón- Quintero-Puchuncaví Saturada / Latente MP 2.5 (Material particulado respirable) anual MP10 anual - MP 2.5 diaria (Material particulado respirable) MP 2.5 anual D.S. Nº 364 de 1994 / D.S. Nº 10 de 2015 05","source_file":"geonoxa_zonas_panel.geojson"},"geometry":{"type":"Point","coordinates":[-71.43382475473231,-32.814634]}},{"type":"Feature","properties":{"familia":"zonas","tipo_objeto":"Zona Saturada / Latente","id_objeto":22,"nombre_objeto":"Provincia de Quillota y a las comunas de Catemu, Panquehue y Llaillay de la Provincia de San Felipe de Aconcagua","nombre_zona":"Provincia de Quillota y a las comunas de Catemu, Panquehue y Llaillay de la Provincia de San Felipe de Aconcagua","zona_dec":"Saturada / Latente","contaminante":"MP10 anual","saturado":"MP10 anual (Material particulado respirable)","latentes":"MP10 diaria (Material particulado respirable)","decreto":"D.S. Nº 107 de 2019","link":"http://bcn.cl/2ac6g","cut_reg":"05","superficie":111245.6791646369,"bbox":[-71.4523733,-32.9903578,-71.0034924,-32.5905115],"lat":-32.79039235,"lon":-71.1607961124214,"nombre_busq":"Provincia de Quillota y a las comunas de Catemu, Panquehue y Llaillay de la Provincia de San Felipe de Aconcagua Saturada / Latente MP10 anual (Material particulado respirable) MP10 diaria (Material particulado respirable) MP10 anual D.S. Nº 107 de 2019 05","source_file":"geonoxa_zonas_panel.geojson"},"geometry":{"type":"Point","coordinates":[-71.1607961124214,-32.79039235]}},{"type":"Feature","properties":{"familia":"zonas","tipo_objeto":"Zona Saturada","id_objeto":23,"nombre_objeto":"Curicó","nombre_zona":"Curicó","zona_dec":"Saturada","contaminante":"MP2,5 diaria","saturado":"MP2,5 diaria (Material particulado respirable)","latentes":"No aplica","decreto":"D.S. Nº 53 de 2016","link":"http://bcn.cl/2629q","cut_reg":"06","superficie":133478.30825638046,"bbox":[-71.3838074,-35.5601106,-70.3679651,-34.88796],"lat":-35.224191950000005,"lon":-70.90716690189606,"nombre_busq":"Curicó Saturada MP2,5 diaria (Material particulado respirable) No aplica MP2,5 diaria D.S. Nº 53 de 2016 06","source_file":"geonoxa_zonas_panel.geojson"},"geometry":{"type":"Point","coordinates":[-70.90716690189606,-35.224191950000005]}},{"type":"Feature","properties":{"familia":"zonas","tipo_objeto":"Zona Saturada / Latente","id_objeto":24,"nombre_objeto":"Lota, Coronel, San Pedro de la Paz, Hualqui, Chiguayante, Concepción, Penco, Tomé, Hualpén y Talcahuano","nombre_zona":"Lota, Coronel, San Pedro de la Paz, Hualqui, Chiguayante, Concepción, Penco, Tomé, Hualpén y Talcahuano","zona_dec":"Saturada/ Latente","contaminante":"MP2,5 diaria","saturado":"MP2,5 diaria (Material particulado respirable)","latentes":"MP10 diaria (Material particulado respirable)","decreto":"D.S. Nº 15 de 2016 / D.S. Nº 41 de 2006","link":"http://bcn.cl/1xi86","cut_reg":"08","superficie":11470.545731870345,"bbox":[-73.1857033,-37.2020104,-73.04162,-37.0499989],"lat":-37.126014999999995,"lon":-73.11017076388887,"nombre_busq":"Lota, Coronel, San Pedro de la Paz, Hualqui, Chiguayante, Concepción, Penco, Tomé, Hualpén y Talcahuano Saturada/ Latente MP2,5 diaria (Material particulado respirable) MP10 diaria (Material particulado respirable) MP2,5 diaria D.S. Nº 15 de 2016 / D.S. Nº 41 de 2006 08","source_file":"geonoxa_zonas_panel.geojson"},"geometry":{"type":"Point","coordinates":[-73.11017076388887,-37.126014999999995]}}]}